IRIDIUM 151             
1 43074U 17083E   26065.24934179 -.00000008  00000+0 -10049-4 0  9992
2 43074  86.4014   5.0727 0002054  86.8677 273.2754 14.34217645429380
IRIDIUM 134             
1 43075U 17083F   26065.21762896  .00000443  00000+0  15112-3 0  9991
2 43075  86.4028   5.0919 0002106  86.2882 273.8555 14.34217979429340
IRIDIUM 137             
1 43076U 17083G   26065.16054646 -.00000007  00000+0 -97178-5 0  9995
2 43076  86.4019   5.2069 0002295  97.2139 262.9318 14.34217475429409
IRIDIUM 141             
1 43077U 17083H   26065.15420971  .00000326  00000+0  10936-3 0  9990
2 43077  86.4024   5.0463 0002220  82.6691 277.4757 14.34221608429402
IRIDIUM 153             
1 43078U 17083J   26065.10638149  .00000039  00000+0  69112-5 0  9997
2 43078  86.4021 333.5802 0002092  79.0944 281.0487 14.34217918430507
IRIDIUM 131             
1 43079U 17083K   26065.21128632  .00000406  00000+0  13785-3 0  9992
2 43079  86.4025   5.2012 0002300  85.0737 275.0722 14.34219002429348
IRIDIUM 144             
1 43249U 18030A   26065.25226194  .00000047  00000+0  97736-5 0  9991
2 43249  86.4013 333.4506 0002063  88.4146 271.7286 14.34217745415384
IRIDIUM 149             
1 43250U 18030B   26065.25860412  .00000011  00000+0 -33009-5 0  9995
2 43250  86.4007 333.4160 0002058  83.2673 276.8757 14.34217652415406
IRIDIUM 157             
1 43251U 18030C   26065.27763112  .00000062  00000+0  15039-4 0  9994
2 43251  86.4010 333.4588 0002145  85.0438 275.1003 14.34218176415386
IRIDIUM 140             
1 43252U 18030D   26065.22689124  .00000044  00000+0  87508-5 0  9991
2 43252  86.4013 333.4930 0002009  84.2742 275.8683 14.34217812415432
IRIDIUM 145             
1 43253U 18030E   26065.28396868  .00000370  00000+0  12489-3 0  9994
2 43253  86.4012 333.4417 0001912  94.0663 266.0751 14.34220961415375
IRIDIUM 146             
1 43254U 18030F   26064.70679674  .00000156  00000+0  48688-4 0  9993
2 43254  86.4014 333.6953 0002073  89.6686 270.4747 14.34218951415302
IRIDIUM 148             
1 43255U 18030G   26065.23323413  .00000143  00000+0  44022-4 0  9994
2 43255  86.4013 333.5169 0002188  86.1068 274.0378 14.34217942415414
IRIDIUM 142             
1 43256U 18030H   26065.27128875  .00000014  00000+0 -21192-5 0  9996
2 43256  86.4003 333.3935 0001858  93.5535 266.5873 14.34217699415388
IRIDIUM 150             
1 43257U 18030J   26065.23957612  .00000100  00000+0  28658-4 0  9990
2 43257  86.4014 333.5200 0002067  85.8997 274.2435 14.34217593415403
IRIDIUM 143             
1 43258U 18030K   26065.22054825  .00000054  00000+0  12270-4 0  9995
2 43258  86.4016 333.6163 0002034  89.9016 270.2413 14.34218030415337
IRIDIUM 161             
1 43478U 18047C   26065.28202273  .00000443  00000+0  12579-3 0  9998
2 43478  86.4507 131.5069 0002520  91.5506 268.5984 14.43285310410297
