[{"OBJECT_NAME":"IRIDIUM 151","OBJECT_ID":"2017-083E","EPOCH":"2026-03-06T05:59:03.130656","MEAN_MOTION":14.34217645,"ECCENTRICITY":0.00020545,"INCLINATION":86.4014,"RA_OF_ASC_NODE":5.0727,"ARG_OF_PERICENTER":86.8677,"MEAN_ANOMALY":273.2754,"EPHEMERIS_TYPE":0,"CLASSIFICATION_TYPE":"U","NORAD_CAT_ID":43074,"ELEMENT_SET_NO":999,"REV_AT_EPOCH":42938,"BSTAR":-1.0048932e-5,"MEAN_MOTION_DOT":-8.0e-8,"MEAN_MOTION_DDOT":0},{"OBJECT_NAME":"IRIDIUM 134","OBJECT_ID":"2017-083F","EPOCH":"2026-03-06T05:13:23.142144","MEAN_MOTION":14.34217979,"ECCENTRICITY":0.00021067,"INCLINATION":86.4028,"RA_OF_ASC_NODE":5.0919,"ARG_OF_PERICENTER":86.2882,"MEAN_ANOMALY":273.8555,"EPHEMERIS_TYPE":0,"CLASSIFICATION_TYPE":"U","NORAD_CAT_ID":43075,"ELEMENT_SET_NO":999,"REV_AT_EPOCH":42934,"BSTAR":0.00015111683,"MEAN_MOTION_DOT":4.43e-6,"MEAN_MOTION_DDOT":0},{"OBJECT_NAME":"IRIDIUM 137","OBJECT_ID":"2017-083G","EPOCH":"2026-03-06T03:51:11.214144","MEAN_MOTION":14.34217475,"ECCENTRICITY":0.00022953,"INCLINATION":86.4019,"RA_OF_ASC_NODE":5.2069,"ARG_OF_PERICENTER":97.2139,"MEAN_ANOMALY":262.9318,"EPHEMERIS_TYPE":0,"CLASSIFICATION_TYPE":"U","NORAD_CAT_ID":43076,"ELEMENT_SET_NO":999,"REV_AT_EPOCH":42940,"BSTAR":-9.71777e-6,"MEAN_MOTION_DOT":-7.0e-8,"MEAN_MOTION_DDOT":0},{"OBJECT_NAME":"IRIDIUM 141","OBJECT_ID":"2017-083H","EPOCH":"2026-03-06T03:42:03.718944","MEAN_MOTION":14.34221608,"ECCENTRICITY":0.00022204,"INCLINATION":86.4024,"RA_OF_ASC_NODE":5.0463,"ARG_OF_PERICENTER":82.6691,"MEAN_ANOMALY":277.4757,"EPHEMERIS_TYPE":0,"CLASSIFICATION_TYPE":"U","NORAD_CAT_ID":43077,"ELEMENT_SET_NO":999,"REV_AT_EPOCH":42940,"BSTAR":0.00010936364,"MEAN_MOTION_DOT":3.26e-6,"MEAN_MOTION_DDOT":0},{"OBJECT_NAME":"IRIDIUM 153","OBJECT_ID":"2017-083J","EPOCH":"2026-03-06T02:33:11.360736","MEAN_MOTION":14.34217918,"ECCENTRICITY":0.00020928,"INCLINATION":86.4021,"RA_OF_ASC_NODE":333.5802,"ARG_OF_PERICENTER":79.0944,"MEAN_ANOMALY":281.0487,"EPHEMERIS_TYPE":0,"CLASSIFICATION_TYPE":"U","NORAD_CAT_ID":43078,"ELEMENT_SET_NO":999,"REV_AT_EPOCH":43050,"BSTAR":6.911234e-6,"MEAN_MOTION_DOT":3.9e-7,"MEAN_MOTION_DDOT":0},{"OBJECT_NAME":"IRIDIUM 131","OBJECT_ID":"2017-083K","EPOCH":"2026-03-06T05:04:15.138048","MEAN_MOTION":14.34219002,"ECCENTRICITY":0.00023,"INCLINATION":86.4025,"RA_OF_ASC_NODE":5.2012,"ARG_OF_PERICENTER":85.0737,"MEAN_ANOMALY":275.0722,"EPHEMERIS_TYPE":0,"CLASSIFICATION_TYPE":"U","NORAD_CAT_ID":43079,"ELEMENT_SET_NO":999,"REV_AT_EPOCH":42934,"BSTAR":0.00013785004,"MEAN_MOTION_DOT":4.06e-6,"MEAN_MOTION_DDOT":0},{"OBJECT_NAME":"IRIDIUM 144","OBJECT_ID":"2018-030A","EPOCH":"2026-03-06T06:03:15.431616","MEAN_MOTION":14.34217745,"ECCENTRICITY":0.00020631,"INCLINATION":86.4013,"RA_OF_ASC_NODE":333.4506,"ARG_OF_PERICENTER":88.4146,"MEAN_ANOMALY":271.7286,"EPHEMERIS_TYPE":0,"CLASSIFICATION_TYPE":"U","NORAD_CAT_ID":43249,"ELEMENT_SET_NO":999,"REV_AT_EPOCH":41538,"BSTAR":9.773573e-6,"MEAN_MOTION_DOT":4.7e-7,"MEAN_MOTION_DDOT":0},{"OBJECT_NAME":"IRIDIUM 149","OBJECT_ID":"2018-030B","EPOCH":"2026-03-06T06:12:23.395968","MEAN_MOTION":14.34217652,"ECCENTRICITY":0.0002058,"INCLINATION":86.4007,"RA_OF_ASC_NODE":333.416,"ARG_OF_PERICENTER":83.2673,"MEAN_ANOMALY":276.8757,"EPHEMERIS_TYPE":0,"CLASSIFICATION_TYPE":"U","NORAD_CAT_ID":43250,"ELEMENT_SET_NO":999,"REV_AT_EPOCH":41540,"BSTAR":-3.300912e-6,"MEAN_MOTION_DOT":1.1e-7,"MEAN_MOTION_DDOT":0},{"OBJECT_NAME":"IRIDIUM 157","OBJECT_ID":"2018-030C","EPOCH":"2026-03-06T06:39:47.328768","MEAN_MOTION":14.34218176,"ECCENTRICITY":0.00021455,"INCLINATION":86.401,"RA_OF_ASC_NODE":333.4588,"ARG_OF_PERICENTER":85.0438,"MEAN_ANOMALY":275.1003,"EPHEMERIS_TYPE":0,"CLASSIFICATION_TYPE":"U","NORAD_CAT_ID":43251,"ELEMENT_SET_NO":999,"REV_AT_EPOCH":41538,"BSTAR":1.5039465e-5,"MEAN_MOTION_DOT":6.2e-7,"MEAN_MOTION_DDOT":0},{"OBJECT_NAME":"IRIDIUM 140","OBJECT_ID":"2018-030D","EPOCH":"2026-03-06T05:26:43.403136","MEAN_MOTION":14.34217812,"ECCENTRICITY":0.00020098,"INCLINATION":86.4013,"RA_OF_ASC_NODE":333.493,"ARG_OF_PERICENTER":84.2742,"MEAN_ANOMALY":275.8683,"EPHEMERIS_TYPE":0,"CLASSIFICATION_TYPE":"U","NORAD_CAT_ID":43252,"ELEMENT_SET_NO":999,"REV_AT_EPOCH":41543,"BSTAR":8.750786e-6,"MEAN_MOTION_DOT":4.4e-7,"MEAN_MOTION_DDOT":0},{"OBJECT_NAME":"IRIDIUM 145","OBJECT_ID":"2018-030E","EPOCH":"2026-03-06T06:48:54.893952","MEAN_MOTION":14.34220961,"ECCENTRICITY":0.00019121,"INCLINATION":86.4012,"RA_OF_ASC_NODE":333.4417,"ARG_OF_PERICENTER":94.0663,"MEAN_ANOMALY":266.0751,"EPHEMERIS_TYPE":0,"CLASSIFICATION_TYPE":"U","NORAD_CAT_ID":43253,"ELEMENT_SET_NO":999,"REV_AT_EPOCH":41537,"BSTAR":0.00012488969,"MEAN_MOTION_DOT":3.7e-6,"MEAN_MOTION_DDOT":0},{"OBJECT_NAME":"IRIDIUM 146","OBJECT_ID":"2018-030F","EPOCH":"2026-03-05T16:57:47.238336","MEAN_MOTION":14.34218951,"ECCENTRICITY":0.00020735,"INCLINATION":86.4014,"RA_OF_ASC_NODE":333.6953,"ARG_OF_PERICENTER":89.6686,"MEAN_ANOMALY":270.4747,"EPHEMERIS_TYPE":0,"CLASSIFICATION_TYPE":"U","NORAD_CAT_ID":43254,"ELEMENT_SET_NO":999,"REV_AT_EPOCH":41530,"BSTAR":4.868798e-5,"MEAN_MOTION_DOT":1.56e-6,"MEAN_MOTION_DDOT":0},{"OBJECT_NAME":"IRIDIUM 148","OBJECT_ID":"2018-030G","EPOCH":"2026-03-06T05:35:51.428832","MEAN_MOTION":14.34217942,"ECCENTRICITY":0.00021887,"INCLINATION":86.4013,"RA_OF_ASC_NODE":333.5169,"ARG_OF_PERICENTER":86.1068,"MEAN_ANOMALY":274.0378,"EPHEMERIS_TYPE":0,"CLASSIFICATION_TYPE":"U","NORAD_CAT_ID":43255,"ELEMENT_SET_NO":999,"REV_AT_EPOCH":41541,"BSTAR":4.4021975e-5,"MEAN_MOTION_DOT":1.43e-6,"MEAN_MOTION_DDOT":0},{"OBJECT_NAME":"IRIDIUM 142","OBJECT_ID":"2018-030H","EPOCH":"2026-03-06T06:30:39.348000","MEAN_MOTION":14.34217699,"ECCENTRICITY":0.0001858,"INCLINATION":86.4003,"RA_OF_ASC_NODE":333.3935,"ARG_OF_PERICENTER":93.5535,"MEAN_ANOMALY":266.5873,"EPHEMERIS_TYPE":0,"CLASSIFICATION_TYPE":"U","NORAD_CAT_ID":43256,"ELEMENT_SET_NO":999,"REV_AT_EPOCH":41538,"BSTAR":-2.119205e-6,"MEAN_MOTION_DOT":1.4e-7,"MEAN_MOTION_DDOT":0},{"OBJECT_NAME":"IRIDIUM 150","OBJECT_ID":"2018-030J","EPOCH":"2026-03-06T05:44:59.376768","MEAN_MOTION":14.34217593,"ECCENTRICITY":0.00020676,"INCLINATION":86.4014,"RA_OF_ASC_NODE":333.52,"ARG_OF_PERICENTER":85.8997,"MEAN_ANOMALY":274.2435,"EPHEMERIS_TYPE":0,"CLASSIFICATION_TYPE":"U","NORAD_CAT_ID":43257,"ELEMENT_SET_NO":999,"REV_AT_EPOCH":41540,"BSTAR":2.865847e-5,"MEAN_MOTION_DOT":1.0e-6,"MEAN_MOTION_DDOT":0},{"OBJECT_NAME":"IRIDIUM 143","OBJECT_ID":"2018-030K","EPOCH":"2026-03-06T05:17:35.368800","MEAN_MOTION":14.3421803,"ECCENTRICITY":0.00020348,"INCLINATION":86.4016,"RA_OF_ASC_NODE":333.6163,"ARG_OF_PERICENTER":89.9016,"MEAN_ANOMALY":270.2413,"EPHEMERIS_TYPE":0,"CLASSIFICATION_TYPE":"U","NORAD_CAT_ID":43258,"ELEMENT_SET_NO":999,"REV_AT_EPOCH":41533,"BSTAR":1.2270098e-5,"MEAN_MOTION_DOT":5.4e-7,"MEAN_MOTION_DDOT":0},{"OBJECT_NAME":"IRIDIUM 161","OBJECT_ID":"2018-047C","EPOCH":"2026-03-06T06:46:06.763872","MEAN_MOTION":14.4328531,"ECCENTRICITY":0.00025205,"INCLINATION":86.4507,"RA_OF_ASC_NODE":131.5069,"ARG_OF_PERICENTER":91.5506,"MEAN_ANOMALY":268.5984,"EPHEMERIS_TYPE":0,"CLASSIFICATION_TYPE":"U","NORAD_CAT_ID":43478,"ELEMENT_SET_NO":999,"REV_AT_EPOCH":41029,"BSTAR":0.0001257943,"MEAN_MOTION_DOT":4.43e-6,"MEAN_MOTION_DDOT":0}]
